STARLINK-2139           
1 48554U 21041B   24133.00760547 -.00024046  00000+0 -16375-2 0  9997
2 48554  53.0549 244.2083 0002450  88.5501 271.5768 15.05561816165124
